[
    {
        "Altitude(m)": 607895.7980925639,
        "Argument of Periapsis(deg)": 0.0,
        "Eccentricity": 0.0,
        "Inclination(deg)": 60.0,
        "Latitude(deg)": 40.99828733629723,
        "Longitude(deg)": -139.91127451016825,
        "Mean Anomaly(deg)": 130.9091,
        "RAAN(deg)": 170.00000000000003,
        "Satellite Name": "Test1 756",
        "Satellite Number": 756,
        "Semi-Major Axis(m)": 6980739.136638005,
        "Time(s)": 0
    },
    {
        "Altitude(m)": 607795.1106886067,
        "Argument of Periapsis(deg)": 0.00010418945913296404,
        "Eccentricity": 0.0,
        "Inclination(deg)": 60.0,
        "Latitude(deg)": 40.53061078953789,
        "Longitude(deg)": -139.4146823706867,
        "Mean Anomaly(deg)": 131.5292061454618,
        "RAAN(deg)": 169.99957995086027,
        "Satellite Name": "Test1 756",
        "Satellite Number": 756,
        "Semi-Major Axis(m)": 6980739.136638005,
        "Time(s)": 10
    }
]